{"type": "FeatureCollection", "features": [ {"type": "Feature", "properties": {"norad_id": 30648, "name": "FENGYUN 1C DEB", "group": "fengyun-1c-debris", "lat": 21.043419041812655, "lon": 73.78473255974711, "alt_km": 743.7744093873716, "timestamp": "2025-12-08T13:49:32.070489+00:00", "meta": {"OBJECT_NAME": "FENGYUN 1C DEB", "OBJECT_ID": "1999-025APF", "EPOCH": "2025-12-08T05:41:07.277856", "MEAN_MOTION": 14.48007087, "ECCENTRICITY": 0.00347695, "INCLINATION": 98.6422, "RA_OF_ASC_NODE": 76.7926, "ARG_OF_PERICENTER": 141.0103, "MEAN_ANOMALY": 273.6996, "EPHEMERIS_TYPE": 0, "CLASSIFICATION_TYPE": "U", "NORAD_CAT_ID": 30648, "ELEMENT_SET_NO": 999, "REV_AT_EPOCH": 97801, "BSTAR": 0.0028379354, "MEAN_MOTION_DOT": 0.00010589, "MEAN_MOTION_DDOT": 0}, "tle": {"line1": "1 30648U 99025APF 25342.23688979  .00010589  00000+0  28379-2 0  9997", "line2": "2 30648  98.6422  76.7926 0034769 141.0103 273.6996 14.48007087978016"}}, "geometry": {"type": "Point", "coordinates": [73.78473255974711, 21.043419041812655]}}, {"type": "Feature", "properties": {"norad_id": 30649, "name": "FENGYUN 1C DEB", "group": "fengyun-1c-debris", "lat": 81.18382952907805, "lon": -11.170239009643248, "alt_km": 787.9184461088034, "timestamp": "2025-12-08T13:49:32.070500+00:00", "meta": {"OBJECT_NAME": "FENGYUN 1C DEB", "OBJECT_ID": "1999-025APG", "EPOCH": "2025-12-08T05:17:27.186720", "MEAN_MOTION": 14.29460578, "ECCENTRICITY": 0.00513844, "INCLINATION": 98.8093, "RA_OF_ASC_NODE": 77.4797, "ARG_OF_PERICENTER": 184.0769, "MEAN_ANOMALY": 237.3931, "EPHEMERIS_TYPE": 0, "CLASSIFICATION_TYPE": "U", "NORAD_CAT_ID": 30649, "ELEMENT_SET_NO": 999, "REV_AT_EPOCH": 96999, "BSTAR": 0.0027963261, "MEAN_MOTION_DOT": 7.202e-05, "MEAN_MOTION_DDOT": 0}, "tle": {"line1": "1 30649U 99025APG 25342.22045355  .00007202  00000+0  27963-2 0  9998", "line2": "2 30649  98.8093  77.4797 0051384 184.0769 237.3931 14.29460578969994"}}, "geometry": {"type": "Point", "coordinates": [-11.170239009643248, 81.18382952907805]}}, {"type": "Feature", "properties": {"norad_id": 30650, "name": "FENGYUN 1C DEB", "group": "fengyun-1c-debris", "lat": -37.34542873804891, "lon": 30.149330299262466, "alt_km": 878.9853837274231, "timestamp": "2025-12-08T13:49:32.070510+00:00", "meta": {"OBJECT_NAME": "FENGYUN 1C DEB", "OBJECT_ID": "1999-025APH", "EPOCH": "2025-12-08T02:23:00.301056", "MEAN_MOTION": 14.13895678, "ECCENTRICITY": 0.00720645, "INCLINATION": 99.2038, "RA_OF_ASC_NODE": 22.552, "ARG_OF_PERICENTER": 202.421, "MEAN_ANOMALY": 213.6829, "EPHEMERIS_TYPE": 0, "CLASSIFICATION_TYPE": "U", "NORAD_CAT_ID": 30650, "ELEMENT_SET_NO": 999, "REV_AT_EPOCH": 96233, "BSTAR": 0.0019475065, "MEAN_MOTION_DOT": 3.74e-05, "MEAN_MOTION_DDOT": 0}, "tle": {"line1": "1 30650U 99025APH 25342.09930904  .00003740  00000+0  19475-2 0  9990", "line2": "2 30650  99.2038  22.5520 0072064 202.4210 213.6829 14.13895678962339"}}, "geometry": {"type": "Point", "coordinates": [30.149330299262466, -37.34542873804891]}}, {"type": "Feature", "properties": {"norad_id": 30652, "name": "FENGYUN 1C DEB", "group": "fengyun-1c-debris", "lat": 63.009099125872574, "lon": -146.50188011907835, "alt_km": 865.8044236350861, "timestamp": "2025-12-08T13:49:32.070521+00:00", "meta": {"OBJECT_NAME": "FENGYUN 1C DEB", "OBJECT_ID": "1999-025APJ", "EPOCH": "2025-12-08T01:28:33.523104", "MEAN_MOTION": 14.07802294, "ECCENTRICITY": 0.00073271, "INCLINATION": 98.7856, "RA_OF_ASC_NODE": 15.3216, "ARG_OF_PERICENTER": 280.2551, "MEAN_ANOMALY": 108.9253, "EPHEMERIS_TYPE": 0, "CLASSIFICATION_TYPE": "U", "NORAD_CAT_ID": 30652, "ELEMENT_SET_NO": 999, "REV_AT_EPOCH": 96628, "BSTAR": 7.8060664e-05, "MEAN_MOTION_DOT": 8.9e-07, "MEAN_MOTION_DDOT": 0}, "tle": {"line1": "1 30652U 99025APJ 25342.06149911  .00000089  00000+0  78061-4 0  9990", "line2": "2 30652  98.7856  15.3216 0007327 280.2551 108.9253 14.07802294966287"}}, "geometry": {"type": "Point", "coordinates": [-146.50188011907835, 63.009099125872574]}}, {"type": "Feature", "properties": {"norad_id": 30654, "name": "FENGYUN 1C DEB", "group": "fengyun-1c-debris", "lat": -17.44870727241451, "lon": -91.41350512579051, "alt_km": 854.8422663146421, "timestamp": "2025-12-08T13:49:32.070531+00:00", "meta": {"OBJECT_NAME": "FENGYUN 1C DEB", "OBJECT_ID": "1999-025APL", "EPOCH": "2025-12-07T17:34:27.086016", "MEAN_MOTION": 14.17065876, "ECCENTRICITY": 0.0034854, "INCLINATION": 99.2409, "RA_OF_ASC_NODE": 264.777, "ARG_OF_PERICENTER": 110.7672, "MEAN_ANOMALY": 249.7241, "EPHEMERIS_TYPE": 0, "CLASSIFICATION_TYPE": "U", "NORAD_CAT_ID": 30654, "ELEMENT_SET_NO": 999, "REV_AT_EPOCH": 96609, "BSTAR": 0.0018664789, "MEAN_MOTION_DOT": 3.732e-05, "MEAN_MOTION_DDOT": 0}, "tle": {"line1": "1 30654U 99025APL 25341.73225794  .00003732  00000+0  18665-2 0  9999", "line2": "2 30654  99.2409 264.7770 0034854 110.7672 249.7241 14.17065876966098"}}, "geometry": {"type": "Point", "coordinates": [-91.41350512579051, -17.44870727241451]}}, {"type": "Feature", "properties": {"norad_id": 30656, "name": "FENGYUN 1C DEB", "group": "fengyun-1c-debris", "lat": 68.19844278241861, "lon": 133.02147729667357, "alt_km": 715.8179758161878, "timestamp": "2025-12-08T13:49:32.070541+00:00", "meta": {"OBJECT_NAME": "FENGYUN 1C DEB", "OBJECT_ID": "1999-025APN", "EPOCH": "2025-12-08T05:11:42.861984", "MEAN_MOTION": 14.4519561, "ECCENTRICITY": 0.00302932, "INCLINATION": 99.0188, "RA_OF_ASC_NODE": 156.0342, "ARG_OF_PERICENTER": 100.2438, "MEAN_ANOMALY": 260.217, "EPHEMERIS_TYPE": 0, "CLASSIFICATION_TYPE": "U", "NORAD_CAT_ID": 30656, "ELEMENT_SET_NO": 999, "REV_AT_EPOCH": 97020, "BSTAR": 0.003363274, "MEAN_MOTION_DOT": 0.0001182, "MEAN_MOTION_DDOT": 0}, "tle": {"line1": "1 30656U 99025APN 25342.21646831  .00011820  00000+0  33633-2 0  9993", "line2": "2 30656  99.0188 156.0342 0030293 100.2438 260.2170 14.45195610970205"}}, "geometry": {"type": "Point", "coordinates": [133.02147729667357, 68.19844278241861]}}, {"type": "Feature", "properties": {"norad_id": 30657, "name": "FENGYUN 1C DEB", "group": "fengyun-1c-debris", "lat": -70.73833942986641, "lon": 106.91651024637588, "alt_km": 766.9925439118906, "timestamp": "2025-12-08T13:49:32.070551+00:00", "meta": {"OBJECT_NAME": "FENGYUN 1C DEB", "OBJECT_ID": "1999-025APP", "EPOCH": "2025-12-08T06:04:06.810240", "MEAN_MOTION": 14.38505771, "ECCENTRICITY": 0.00158315, "INCLINATION": 98.8358, "RA_OF_ASC_NODE": 80.1522, "ARG_OF_PERICENTER": 359.2353, "MEAN_ANOMALY": 55.332, "EPHEMERIS_TYPE": 0, "CLASSIFICATION_TYPE": "U", "NORAD_CAT_ID": 30657, "ELEMENT_SET_NO": 999, "REV_AT_EPOCH": 97168, "BSTAR": 0.0027215622, "MEAN_MOTION_DOT": 8.291e-05, "MEAN_MOTION_DDOT": 0}, "tle": {"line1": "1 30657U 99025APP 25342.25285660  .00008291  00000+0  27216-2 0  9995", "line2": "2 30657  98.8358  80.1522 0015831 359.2353  55.3320 14.38505771971680"}}, "geometry": {"type": "Point", "coordinates": [106.91651024637588, -70.73833942986641]}}, {"type": "Feature", "properties": {"norad_id": 30658, "name": "FENGYUN 1C DEB", "group": "fengyun-1c-debris", "lat": -34.925444612727205, "lon": -170.53522671415084, "alt_km": 821.6109295235547, "timestamp": "2025-12-08T13:49:32.070562+00:00", "meta": {"OBJECT_NAME": "FENGYUN 1C DEB", "OBJECT_ID": "1999-025APQ", "EPOCH": "2025-12-03T01:12:41.803776", "MEAN_MOTION": 13.87127057, "ECCENTRICITY": 0.01832033, "INCLINATION": 98.4391, "RA_OF_ASC_NODE": 10.4218, "ARG_OF_PERICENTER": 254.1059, "MEAN_ANOMALY": 103.9843, "EPHEMERIS_TYPE": 0, "CLASSIFICATION_TYPE": "U", "NORAD_CAT_ID": 30658, "ELEMENT_SET_NO": 999, "REV_AT_EPOCH": 94550, "BSTAR": 0.0023182779, "MEAN_MOTION_DOT": 3.066e-05, "MEAN_MOTION_DDOT": 0}, "tle": {"line1": "1 30658U 99025APQ 25337.05048384  .00003066  00000+0  23183-2 0  9992", "line2": "2 30658  98.4391  10.4218 0183203 254.1059 103.9843 13.87127057945509"}}, "geometry": {"type": "Point", "coordinates": [-170.53522671415084, -34.925444612727205]}}, {"type": "Feature", "properties": {"norad_id": 30660, "name": "FENGYUN 1C DEB", "group": "fengyun-1c-debris", "lat": -66.72961753370073, "lon": -120.5145908698652, "alt_km": 627.8108715685566, "timestamp": "2025-12-08T13:49:32.070575+00:00", "meta": {"OBJECT_NAME": "FENGYUN 1C DEB", "OBJECT_ID": "1999-025APS", "EPOCH": "2025-12-07T12:32:43.888416", "MEAN_MOTION": 14.87442902, "ECCENTRICITY": 0.01383309, "INCLINATION": 98.1415, "RA_OF_ASC_NODE": 77.8486, "ARG_OF_PERICENTER": 351.0491, "MEAN_ANOMALY": 21.599, "EPHEMERIS_TYPE": 0, "CLASSIFICATION_TYPE": "U", "NORAD_CAT_ID": 30660, "ELEMENT_SET_NO": 999, "REV_AT_EPOCH": 707, "BSTAR": 0.00087744352, "MEAN_MOTION_DOT": 9.417e-05, "MEAN_MOTION_DDOT": 0}, "tle": {"line1": "1 30660U 99025APS 25341.52273019  .00009417  00000+0  87744-3 0  9997", "line2": "2 30660  98.1415  77.8486 0138330 351.0491  21.5990 14.87442902  7077"}}, "geometry": {"type": "Point", "coordinates": [-120.5145908698652, -66.72961753370073]}}, {"type": "Feature", "properties": {"norad_id": 30661, "name": "FENGYUN 1C DEB", "group": "fengyun-1c-debris", "lat": -32.65674322205738, "lon": -28.20741381498645, "alt_km": 922.4059081200094, "timestamp": "2025-12-08T13:49:32.070586+00:00", "meta": {"OBJECT_NAME": "FENGYUN 1C DEB", "OBJECT_ID": "1999-025APT", "EPOCH": "2025-12-07T23:19:05.486592", "MEAN_MOTION": 14.21137752, "ECCENTRICITY": 0.01448523, "INCLINATION": 99.487, "RA_OF_ASC_NODE": 157.296, "ARG_OF_PERICENTER": 59.0003, "MEAN_ANOMALY": 302.5308, "EPHEMERIS_TYPE": 0, "CLASSIFICATION_TYPE": "U", "NORAD_CAT_ID": 30661, "ELEMENT_SET_NO": 999, "REV_AT_EPOCH": 97834, "BSTAR": 0.00017624354, "MEAN_MOTION_DOT": 3.76e-06, "MEAN_MOTION_DDOT": 0}, "tle": {"line1": "1 30661U 99025APT 25341.97159128  .00000376  00000+0  17624-3 0  9996", "line2": "2 30661  99.4870 157.2960 0144852  59.0003 302.5308 14.21137752978341"}}, "geometry": {"type": "Point", "coordinates": [-28.20741381498645, -32.65674322205738]}}]}